#dP2022  2 12  0  0  0.00000000      96 __u+U ITR00 FIT  IAC
## 2196 518400.00000000   900.00000000 59622 0.0000000000000
+  115   C06C07C08C09C10C11C12C13C14C16C19C20C21C22C23C24C25
+        C26C27C28C29C30C32C33C34C35C36C37C38C39C40C41C42C43
+        C44C45C46E01E02E03E04E05E07E08E09E11E12E13E14E15E18
+        E21E24E25E26E27E30E31E33E36G01G02G03G04G05G06G07G08
+        G09G10G11G12G13G14G15G16G17G18G19G20G21G22G23G24G25
+        G26G27G28G29G30G31G32J01J02J03R01R02R03R04R05R07R08
+        R09R11R12R13R14R15R17R18R19R20R21R22R24  0  0  0  0
++         8  8  7  8  8  6  5  8  6  8  7  7  6  6  7  7  7
++         7  8  8  7  8  7  7  7  6  7  6  7  7  8  7  7  8
++         7  6  8  6  5  5  7  7  7  5  7  7  7  6  5  6  8
++         5  6  9  7  5  5  7  6  6  6  5  4  5  5  5  7  6
++         6  6  5  5  6  5  5  7  6  5  5  6  5  6  6  5  5
++         5  5  4  6  5  5  5  8  6  8  7  5  6  7  6  6  7
++         8  7  6  5  6  6  6  5  7  7  6  6  7  0  0  0  0
%c M  cc GPS ccc cccc cccc cccc cccc ccccc ccccc ccccc ccccc
%c cc cc ccc ccc cccc cccc cccc cccc ccccc ccccc ccccc ccccc
%f  0.0000000  0.000000000  0.00000000000  0.000000000000000
%f  0.0000000  0.000000000  0.00000000000  0.000000000000000
%i    0    0    0    0      0      0      0      0         0
%i    0    0    0    0      0      0      0      0         0
/* INFORMATION & ANALYSIS CENTER (IAC)      ULTRA-RAPID DATA
/* S/V CLOCKS ARE ALIGNED TO GNSS TIME                      
/* G:C1WC2W R:C1PC2P E:C1XC5X C:C2IC6I J:C1CC2S             
/* PCV:IGS14_2194 OL/AL:FES2004  NONE     YN ORB:CoN CLK:CoN
*  2022 02 12 13 45  0.00000000
PC06 -10915.025834  22922.875461 -33688.650051     38.089496
PC07 -15949.731613  38036.232894   8377.566961    -44.327109
PC08    -60.768115  34774.131347  23961.688667    129.096027
PC09   -217.865835  24603.697692 -33886.732567   -516.570930
PC10  -9479.623444  38154.416788  14837.321080    139.851516
PC11  27370.465951   5313.874807   1547.361892   -212.663350
PC12  16896.155364  13961.889474  17317.778819    680.828782
PC13   5167.715245  38075.215535  17796.642846   -118.808967
PC14  18681.905775   -968.630167 -20701.265239    456.032607
PC16 -12091.583965  22075.810584 -33732.922109     80.495306
PC19 -20990.361497  10612.380354  15033.660867    898.379421
PC20 -14309.197288  -7150.999520  22880.171487   -821.650618
PC21  -1415.658298  21706.760639 -17451.942401   -950.007203
PC22 -15795.058936  22913.599477  -1878.961436   -957.838671
PC23   6948.800696 -19136.653343  19077.440516   -961.827245
PC24  16863.388850  18958.135008  11635.245743   -943.785152
PC25  16763.532480  -1526.839275  22249.838379   -780.506972
PC26   8315.577451  26327.841958  -4208.149813    780.180961
PC27  -7371.956444 -16118.606247 -21575.555961    676.269147
PC28  13517.631328 -12646.349322 -20877.707355     31.884714
PC29 -26690.110333   2613.781862   7726.142971    514.176377
PC30 -24063.982144  -9699.472010 -10314.579816    493.193763
PC32   1272.929648 -21764.073322  17440.720844   -964.843248
PC33  20937.202652 -10690.020933 -15039.946239   -956.916944
PC34  24557.351435   9242.427716   9454.123929   -470.650316
PC35 -13878.239639  12873.000194  20512.075926    136.403174
PC36 -16933.243517    620.860121 -22154.827080   -901.283154
PC37  -6922.159021 -26506.622214   5247.362434   -964.367122
PC38  -5719.011313  31583.619954  27446.382165    210.903647
PC39 -18483.939889  20828.049070 -31691.018570     34.775258
PC40 -22437.982350  34890.057999   7016.803023    243.785846
PC41  15921.444445 -22867.926712   1529.576397   -936.229507
PC42  13725.976470   8049.243717 -22880.664315   -930.923773
PC43  26886.768943  -2127.206887  -7115.626619   -942.180036
PC44   7631.765995  15985.077011  21547.082021    562.472891
PC45  -6662.834062  19310.869923 -19028.835965    678.638458
PC46 -17210.568073 -17791.753265 -12847.016400   -164.746433
PE01   7151.390094 -28141.278756   5711.980262   -577.691393
PE02  -7065.180917  28214.010924  -5574.637683    279.786825
PE03 -12942.827524  19579.085127 -18034.614552   -526.989921
PE04  -8045.225401 -15082.911818  24169.394557   -963.109084
PE05 -26737.166228  12648.928129  -1171.521315   -209.739443
PE07  24773.916849   1539.579557 -16127.173481   -638.269089
PE08   8497.889336  14701.943735 -24245.796613   5856.535259
PE09 -24844.420583  -1196.524995  16040.101412   5362.747296
PE11 -25722.850815 -12544.391427   7597.910190   4468.967140
PE12 -16495.285100 -21523.406664 -11887.719140   4763.044836
PE13  25677.655855  12952.977323  -6972.616107    426.478159
PE14  -7080.294830  15324.325764  16240.238782  -1743.213202
PE15  16428.534323  21462.842187  12069.158195    763.726988
PE18   9219.352271 -21203.401952 -22866.206335  -1801.095482
PE21  15548.454714 -14908.032943  20291.364557   -716.748537
PE24 -15230.012499  -9080.150462 -23713.304124  -1386.664544
PE25 -15615.320258  14670.786070 -20428.524600   -563.385245
PE26  19192.365348  -4029.544811 -22160.622105   -797.158787
PE27  15542.995523   7665.879184  23996.602404   -230.709854
PE30   5614.427672  26183.307008  12624.808520   -268.261822
PE31  -6397.286411 -25517.707419 -13554.599333   -492.085805
PE33   2439.620814 -17287.296053 -23894.711242   -459.499722
PE36 -19789.287774   3114.112197  21804.359677   -331.302209
PG01 -21482.041178 -12875.526513   9072.194155    433.325211
PG02  12323.968878  20720.414229  11661.964851   -650.719449
PG03 -14079.169193  -5061.732677  21846.945642   -118.116165
PG04 -24068.573357  -2036.522990  11142.071108   -189.983860
PG05   7137.048011  20132.965991 -15849.737494    -71.173645
PG06  -2488.270608  16635.970699  20605.208982    199.259935
PG07 -17942.787786   1696.814564 -19286.081354    309.738991
PG08 -16879.144113  -8467.053316 -18840.509637    -55.893116
PG09 -25531.919422   7351.633258    597.242040   -354.475879
PG10  11571.031736 -22049.118009  -8666.704200   -318.451868
PG11   9993.168548  22061.772832  10917.600869    -91.379738
PG12  12463.850237   9014.951343  21402.659696   -169.919863
PG13   8535.365902  13583.987963 -21347.634920    260.522642
PG14 -13033.215650  21206.119087  -9174.821805    -82.981066
PG15  18299.626041   7136.285897 -18424.022292    -84.390205
PG16  -2043.044011 -22583.540749 -13699.672258   -468.479329
PG17 -18569.646501  13541.737062  13789.831638    574.130191
PG18  17309.779929  -2058.943596 -20070.347012    241.731198
PG19 -11630.871140  14648.472013  18522.676284    117.967204
PG20   2472.089028  25735.864457  -6636.867290    516.738319
PG21 -20861.114056 -16987.621818    288.659338    157.907445
PG22   7664.413980 -15883.392454  20203.368478    212.490199
PG23  15219.556451 -12905.072372 -17494.327022      2.024643
PG24  22171.758960  14316.667771   4254.531866    274.869801
PG25  15944.804700  -5189.684132  20248.548348    284.484670
PG26   4359.125829 -26011.613325  -1010.610118    182.606675
PG27  -5446.455600 -14051.654285 -22077.285278    115.836195
PG28  -9131.580803  25056.220131   -375.691653    402.066426
PG29  26203.916613  -3354.589927   2994.919371   -479.283049
PG30 -11506.297566  10721.733439 -21333.978945   -512.917101
PG31    952.127256 -18219.776455  19009.662761   -164.379066
PG32  14233.819253 -15816.598064  15905.277143    -66.411895
PJ01 -36468.546179  21027.756096   2446.274067    250.821704
PJ02 -21916.755221  29401.814671 -16228.553876     -1.307357
PJ03 -28595.990897  23147.702493  25655.673744     -0.500390
PR01   6680.194706   8863.723094 -22964.411183      7.074597
PR02  18995.796994  -7282.746752 -15302.433457    509.432145
PR03  18501.820587 -17478.549597   1186.103376     51.353628
PR04   7848.246208 -17563.633599  16772.520045    127.374897
PR05  -7196.038506  -8051.740777  23120.821804     87.575241
PR07 -18342.013932  17672.012351  -1774.766025     31.569356
PR08  -7740.429965  17626.016319 -16694.396458    -63.532776
PR09 -12022.183842  -2979.239911 -22296.218178     39.087910
PR11   2749.850048  24610.784040  -6092.633043     45.680470
PR12  10363.045202  19894.276340  12187.050004     17.157188
PR13  11885.508565   4245.801922  22146.004372    -18.201077
PR14   6239.005002 -15284.059153  19454.362334     74.260851
PR15  -2780.659495 -24783.089828   5364.374152     98.237776
PR17  14612.960005  -4920.965297 -20317.562074    500.953539
PR18  -2570.909588 -11548.266061 -22587.074888    107.003510
PR19 -17181.615028 -12799.194636 -13840.419640   -177.918800
PR20 -24082.704827  -5982.598899   6025.241304    -64.806313
PR21 -13303.866170   5548.370325  21043.553267   -277.475409
PR22   3332.227657  11695.546947  22396.578155   -164.255831
PR24  24131.427525   4970.177717  -6601.246677     79.875313
EOF
